OBJECT_NAME,OBJECT_ID,EPOCH,MEAN_MOTION,ECCENTRICITY,INCLINATION,RA_OF_ASC_NODE,ARG_OF_PERICENTER,MEAN_ANOMALY,EPHEMERIS_TYPE,CLASSIFICATION_TYPE,NORAD_CAT_ID,ELEMENT_SET_NO,REV_AT_EPOCH,BSTAR,MEAN_MOTION_DOT,MEAN_MOTION_DDOT
INTELSAT 902 (IS-902),2001-039A,2026-07-18T05:42:38.726208,1.00271526,.00041797,6.1922,71.4001,45.4278,214.7794,0,U,26900,999,9100,0,-.294E-5,0
INTELSAT 904 (IS-904),2002-007A,2026-07-18T02:42:38.738304,1.00270388,.00054028,6.9954,68.8101,27.4130,208.8747,0,U,27380,999,5207,0,-.237E-5,0
DIRECTV 5 (TEMPO 1),2002-023A,2026-07-18T04:08:55.658688,1.00271853,.00032202,4.9551,74.9230,49.3707,123.8014,0,U,27426,999,8843,0,-.67E-6,0
INTELSAT 905 (IS-905),2002-027A,2026-07-18T05:26:38.615712,1.00272507,.00035421,6.8295,69.4223,48.8529,122.2063,0,U,27438,999,5167,0,.83E-6,0
GALAXY 3C (G-3C),2002-030A,2026-07-17T19:39:58.557600,1.00270872,.00016533,3.8113,77.5805,31.4456,26.7582,0,U,27445,999,4680,0,-.163E-5,0
INTELSAT 906 (IS-906),2002-041A,2026-07-18T04:58:30.279360,1.00273761,.00037006,5.8782,72.5358,28.8661,333.4084,0,U,27513,999,8734,0,.2E-7,0
GALAXY 13 (HORIZONS-1),2003-044A,2026-07-18T05:34:38.800992,1.00272648,.00021092,1.4965,83.4619,35.4980,110.7264,0,U,27954,999,4688,0,.124E-5,0
INTELSAT 10-02,2004-022A,2026-07-18T06:22:39.452160,1.00270395,.0000179,0.0539,254.5799,0.4543,135.6919,0,U,28358,999,8086,0,-.19E-6,0
DIRECTV 8,2005-019A,2026-07-18T05:10:38.483616,1.00270636,.00031333,0.0230,66.3381,55.6490,132.6486,0,U,28659,999,7738,0,0,0
GALAXY 28 (G-28),2005-022A,2026-07-18T05:26:38.777280,1.00271300,.0002485,3.3756,78.5482,32.7813,239.2666,0,U,28702,999,5228,0,-.21E-5,0
GALAXY 16 (G-16),2006-023A,2026-07-18T05:53:30.234048,1.00271545,.00026106,0.0248,148.8409,327.7666,168.8057,0,U,29236,999,7328,0,-.135E-5,0
DIRECTV 9S,2006-043A,2026-07-18T04:11:25.420128,1.00271500,.00050286,2.4990,80.5295,32.5909,144.5121,0,U,29494,999,5169,0,-.123E-5,0
GALAXY 17 (G-17),2007-016B,2026-07-18T05:58:41.749248,1.00271282,.00036796,3.0484,79.5094,36.5692,184.6236,0,U,31307,999,7011,0,-.215E-5,0
INTELSAT 11 (IS-11),2007-044B,2026-07-18T06:19:47.226720,0.99052931,.00043362,3.6446,78.2923,99.6419,202.2112,0,U,32253,999,6875,0,-.221E-5,0
HORIZONS-2,2007-063B,2026-07-18T06:01:48.950400,1.00272972,.00035727,2.6804,80.2460,18.0620,214.3921,0,U,32388,999,6812,0,-.263E-5,0
DIRECTV 11,2008-013A,2026-07-18T05:53:30.170112,1.00270946,.00000535,0.0015,223.7085,352.6276,68.8979,0,U,32729,999,4590,0,-.134E-5,0
GALAXY 18 (G-18),2008-024A,2026-07-18T05:40:55.740864,1.00271400,.00029076,0.0185,79.8494,36.2956,142.1063,0,U,32951,999,4616,0,.17E-6,0
GALAXY 19 (G-19),2008-045A,2026-07-18T04:12:32.812128,1.00270977,.00024735,0.0487,241.8745,245.3417,134.8994,0,U,33376,999,6521,0,-.147E-5,0
FM-5,2009-034A,2026-07-17T23:07:35.120352,1.00271932,.00007245,0.0358,248.5990,112.8401,195.0577,0,U,35493,999,4695,0,-.209E-5,0
INTELSAT 14 (IS-14),2009-064A,2026-07-18T05:42:38.726208,1.00269912,.00024725,0.0182,44.7413,73.2029,218.7699,0,U,36097,999,6091,0,0,0
INTELSAT 15 (IS-15),2009-067A,2026-07-17T23:56:33.040896,1.00272821,.00022646,0.0169,41.9897,74.0463,264.0448,0,U,36106,999,4153,0,-.194E-5,0
DIRECTV 12,2009-075A,2026-07-18T05:37:31.555200,1.00272270,.00002744,0.0439,224.7398,358.8236,54.1280,0,U,36131,999,4686,0,-.111E-5,0
INTELSAT 16 (IS-16),2010-006A,2026-07-18T06:01:11.509824,1.00271855,.00023703,0.0178,62.1446,73.8725,174.1239,0,U,36397,999,5996,0,-.253E-5,0
XM-5,2010-053A,2026-07-18T05:10:38.483616,1.00272905,.00014391,0.0603,264.1063,321.1329,33.2418,0,U,37185,999,5779,0,-.31E-6,0
INTELSAT 17 (IS-17),2010-065B,2026-07-18T04:13:38.521056,1.00272541,.00025538,0.0056,84.4092,43.7108,297.2670,0,U,37238,999,5355,0,-.1E-6,0
INTELSAT 28 (IS-28),2011-016A,2026-07-18T06:13:55.290144,1.00271825,.00038078,1.8848,82.2464,41.2702,234.3194,0,U,37392,999,5359,0,-.234E-5,0
INTELSAT 18 (IS-18),2011-056A,2026-07-18T05:50:38.675616,1.00272762,.00018495,0.0382,254.8946,233.4380,75.3713,0,U,37834,999,5412,0,.45E-6,0
INTELSAT 22 (IS-22),2012-011A,2026-07-18T04:13:38.521056,1.00271977,.00018398,0.0192,57.0761,71.5943,302.8213,0,U,38098,999,749,0,-.67E-6,0
INTELSAT 19 (IS-19),2012-030A,2026-07-18T06:00:51.837408,1.00271891,.0002911,0.0167,47.0553,69.4113,75.7885,0,U,38356,999,5076,0,-.65E-6,0
INTELSAT 20 (IS-20),2012-043A,2026-07-18T04:13:38.521056,1.00271147,.00013077,0.0133,69.4575,112.6418,245.7967,0,U,38740,999,5105,0,-.32E-6,0
INTELSAT 21 (IS-21),2012-045A,2026-07-18T06:06:26.006688,1.00272169,.00016745,0.0476,243.6431,243.9769,202.0510,0,U,38749,999,5083,0,-.293E-5,0
