INTELSAT 902 (IS-902)   
1 26900U 01039A   26199.23794822 -.00000294  00000+0  00000+0 0  9998
2 26900   6.1922  71.4001 0004179  45.4278 214.7794  1.00271526 91001
INTELSAT 904 (IS-904)   
1 27380U 02007A   26199.11294836 -.00000237  00000+0  00000+0 0  9991
2 27380   6.9954  68.8101 0005402  27.4130 208.8747  1.00270388 52076
DIRECTV 5 (TEMPO 1)     
1 27426U 02023A   26199.17286642 -.00000067  00000+0  00000+0 0  9993
2 27426   4.9551  74.9230 0003220  49.3707 123.8014  1.00271853 88438
INTELSAT 905 (IS-905)   
1 27438U 02027A   26199.22683583  .00000083  00000+0  00000+0 0  9998
2 27438   6.8295  69.4223 0003542  48.8529 122.2063  1.00272507 51671
GALAXY 3C (G-3C)        
1 27445U 02030A   26198.81942775 -.00000163  00000+0  00000+0 0  9995
2 27445   3.8113  77.5805 0001653  31.4456  26.7582  1.00270872 46805
INTELSAT 906 (IS-906)   
1 27513U 02041A   26199.20729490  .00000002  00000+0  00000+0 0  9995
2 27513   5.8782  72.5358 0003700  28.8661 333.4084  1.00273761 87345
GALAXY 13 (HORIZONS-1)  
1 27954U 03044A   26199.23239353  .00000124  00000+0  00000+0 0  9990
2 27954   1.4965  83.4619 0002109  35.4980 110.7264  1.00272648 46883
INTELSAT 10-02          
1 28358U 04022A   26199.26573440 -.00000019  00000+0  00000+0 0  9991
2 28358   0.0539 254.5799 0000179   0.4543 135.6919  1.00270395 80862
DIRECTV 8               
1 28659U 05019A   26199.21572319  .00000000  00000+0  00000+0 0  9990
2 28659   0.0230  66.3381 0003133  55.6490 132.6486  1.00270636 77383
GALAXY 28 (G-28)        
1 28702U 05022A   26199.22683770 -.00000210  00000+0  00000+0 0  9992
2 28702   3.3756  78.5482 0002485  32.7813 239.2666  1.00271300 52287
GALAXY 16 (G-16)        
1 29236U 06023A   26199.24548882 -.00000135  00000+0  00000+0 0  9999
2 29236   0.0248 148.8409 0002610 327.7666 168.8057  1.00271545 73288
DIRECTV 9S              
1 29494U 06043A   26199.17459977 -.00000123  00000+0  00000+0 0  9992
2 29494   2.4990  80.5295 0005028  32.5909 144.5121  1.00271500 51691
GALAXY 17 (G-17)        
1 31307U 07016B   26199.24909432 -.00000215  00000+0  00000+0 0  9995
2 31307   3.0484  79.5094 0003679  36.5692 184.6236  1.00271282 70117
INTELSAT 11 (IS-11)     
1 32253U 07044B   26199.26374105 -.00000221  00000+0  00000+0 0  9999
2 32253   3.6446  78.2923 0004336  99.6419 202.2112  0.99052931 68759
HORIZONS-2              
1 32388U 07063B   26199.25126100 -.00000263  00000+0  00000+0 0  9994
2 32388   2.6804  80.2460 0003572  18.0620 214.3921  1.00272972 68129
DIRECTV 11              
1 32729U 08013A   26199.24548808 -.00000134  00000+0  00000+0 0  9998
2 32729   0.0015 223.7085 0000053 352.6276  68.8979  1.00270946 45901
GALAXY 18 (G-18)        
1 32951U 08024A   26199.23675626  .00000017  00000+0  00000+0 0  9994
2 32951   0.0185  79.8494 0002907  36.2956 142.1063  1.00271400 46165
GALAXY 19 (G-19)        
1 33376U 08045A   26199.17537977 -.00000147  00000+0  00000+0 0  9993
2 33376   0.0487 241.8745 0002473 245.3417 134.8994  1.00270977 65211
FM-5                    
1 35493U 09034A   26198.96360093 -.00000209  00000+0  00000+0 0  9992
2 35493   0.0358 248.5990 0000724 112.8401 195.0577  1.00271932 46952
INTELSAT 14 (IS-14)     
1 36097U 09064A   26199.23794822  .00000000  00000+0  00000+0 0  9996
2 36097   0.0182  44.7413 0002472  73.2029 218.7699  1.00269912 60917
INTELSAT 15 (IS-15)     
1 36106U 09067A   26198.99760464 -.00000194  00000+0  00000+0 0  9992
2 36106   0.0169  41.9897 0002264  74.0463 264.0448  1.00272821 41534
DIRECTV 12              
1 36131U 09075A   26199.23439300 -.00000111  00000+0  00000+0 0  9998
2 36131   0.0439 224.7398 0000274 358.8236  54.1280  1.00272270 46860
INTELSAT 16 (IS-16)     
1 36397U 10006A   26199.25082766 -.00000253  00000+0  00000+0 0  9997
2 36397   0.0178  62.1446 0002370  73.8725 174.1239  1.00271855 59968
XM-5                    
1 37185U 10053A   26199.21572319 -.00000031  00000+0  00000+0 0  9993
2 37185   0.0603 264.1063 0001439 321.1329  33.2418  1.00272905 57790
INTELSAT 17 (IS-17)     
1 37238U 10065B   26199.17614029 -.00000010  00000+0  00000+0 0  9992
2 37238   0.0056  84.4092 0002553  43.7108 297.2670  1.00272541 53554
INTELSAT 28 (IS-28)     
1 37392U 11016A   26199.25966771 -.00000234  00000+0  00000+0 0  9991
2 37392   1.8848  82.2464 0003807  41.2702 234.3194  1.00271825 53599
INTELSAT 18 (IS-18)     
1 37834U 11056A   26199.24350319  .00000045  00000+0  00000+0 0  9999
2 37834   0.0382 254.8946 0001849 233.4380  75.3713  1.00272762 54128
INTELSAT 22 (IS-22)     
1 38098U 12011A   26199.17614029 -.00000067  00000+0  00000+0 0  9992
2 38098   0.0192  57.0761 0001839  71.5943 302.8213  1.00271977  7491
INTELSAT 19 (IS-19)     
1 38356U 12030A   26199.25059997 -.00000065  00000+0  00000+0 0  9994
2 38356   0.0167  47.0553 0002911  69.4113  75.7885  1.00271891 50769
INTELSAT 20 (IS-20)     
1 38740U 12043A   26199.17614029 -.00000032  00000+0  00000+0 0  9993
2 38740   0.0133  69.4575 0001307 112.6418 245.7967  1.00271147 51055
INTELSAT 21 (IS-21)     
1 38749U 12045A   26199.25446767 -.00000293  00000+0  00000+0 0  9994
2 38749   0.0476 243.6431 0001674 243.9769 202.0510  1.00272169 50835
